{
"type": "FeatureCollection",
"name": "Tondli",
"crs": { "type": "name", "properties": { "name": "urn:ogc:def:crs:OGC:1.3:CRS84" } },
"features": [
{ "type": "Feature", "properties": { "GML_ID": "Maharashtra_village.39042", "STNAME": "Maharashtra", "DTNAME": "Latur", "GPNAME": "Kawatha Latur", "IPNAME": "Ausa", "STCENSUS": 27, "DTCENSUS": "524", "GPCODE": "179372", "IPCODE": "04232", "VILLNAME": "Tondoli", "NEWCD2011": "560630", "VLGCD2001": "03545900", "VLGCD2011": "560630", "DISTFULL": "524_Latur" }, "geometry": { "type": "MultiPolygon", "coordinates": [ [ [ [ 76.681113545000073, 18.324095042000067 ], [ 76.68068530000005, 18.326961001000029 ], [ 76.680609962000062, 18.327630771000031 ], [ 76.683582654000077, 18.328551166000068 ], [ 76.684787757000038, 18.329083273000037 ], [ 76.684776396000075, 18.330952622000041 ], [ 76.68547377200008, 18.332917578000036 ], [ 76.688541603000033, 18.33256351700004 ], [ 76.688503055000069, 18.331670936000023 ], [ 76.687808558000029, 18.331628339000076 ], [ 76.687735131000068, 18.32930748900003 ], [ 76.687958178000031, 18.329129455000043 ], [ 76.690113842000073, 18.329112204000069 ], [ 76.690896345000056, 18.329042915000059 ], [ 76.692584160000081, 18.329360256000029 ], [ 76.693508865000069, 18.328433364000034 ], [ 76.694875726000078, 18.326933266000026 ], [ 76.695275113000037, 18.325553452000065 ], [ 76.695386055000029, 18.324379202000046 ], [ 76.695465496000054, 18.322027529000025 ], [ 76.695351181000035, 18.321286955000062 ], [ 76.693700912000054, 18.321097844000064 ], [ 76.691792924000083, 18.320594902000039 ], [ 76.689947140000072, 18.320047799000065 ], [ 76.689666086000045, 18.319882435000068 ], [ 76.687557139000035, 18.319540270000061 ], [ 76.687248240000031, 18.318808520000061 ], [ 76.687120925000045, 18.318892155000071 ], [ 76.685143947000029, 18.319385629000067 ], [ 76.684500549000063, 18.319600425000033 ], [ 76.683433450000052, 18.320663257000035 ], [ 76.681735153000034, 18.321742452000024 ], [ 76.681602388000044, 18.321907256000031 ], [ 76.681565628000044, 18.32308430300003 ], [ 76.681113545000073, 18.324095042000067 ] ] ] ] } }
]
}
